satname,norad_id,inclination_deg,eccentricity,mean_motion_rev_per_day,perigee_km,apogee_km,l1,l2
STARLINK-1216,45185,53.1584,0.0001101,15.30255189,474.2957540450916,475.80482588634095,1 45185U 20012H   26098.59317044  .00016487  00000+0  56656-3 0  9992,2 45185  53.1584 260.3369 0001101  51.1117 308.9981 15.30255189339472
STARLINK-1225,45187,53.1587,0.0001031,15.30224599,474.4350491972991,475.8481952492011,1 45187U 20012K   26098.59007943  .00007842  00000+0  27640-3 0  9994,2 45187  53.1587 260.7855 0001031  91.0859 269.0260 15.30224599339512
STARLINK-1230,45189,53.1577,0.0001607,15.30224936,474.0392943162433,476.24193774203377,1 45189U 20012M   26098.59957407  .00009320  00000+0  32614-3 0  9995,2 45189  53.1577 260.7983 0001607 118.5696 241.5466 15.30224936336748
STARLINK-1234,45190,53.041,0.0008415,15.67253567,361.0894657389563,372.44113631158234,1 45190U 20012N   26098.47244449  .00047884  00000+0  43905-3 0  9991,2 45190  53.0410 179.0939 0008415  23.1022 337.0370 15.67253567340546
STARLINK-1269,45197,53.1576,0.0001144,15.30259866,474.2523231331934,475.8203291902182,1 45197U 20012V   26098.59637302  .00015301  00000+0  52669-3 0  9991,2 45197  53.1576 260.6717 0001144 127.5843 232.5261 15.30259866339498
STARLINK-1154,45198,53.0446,0.0003151,15.51382484,410.54894115817933,414.8285195334429,1 45198U 20012W   26098.63181557  .00088539  00000+0  14698-2 0  9995,2 45198  53.0446 226.6291 0003151 236.3706 123.7002 15.51382484339939
STARLINK-1199,45201,53.1582,0.0001384,15.30233759,474.1657830073682,476.0627629597302,1 45201U 20012Z   26098.56567819  .00010761  00000+0  37452-3 0  9997,2 45201  53.1582 245.0646 0001384 102.8279 257.2876 15.30233759339730
STARLINK-1209,45206,53.042,0.0011382,15.57104455,388.33175856552043,403.75249993534635,1 45206U 20012AE  26098.51916048  .00061058  00000+0  82568-3 0  9992,2 45206  53.0420 189.4640 0011382   6.3326 353.7827 15.57104455339557
STARLINK-1231,45212,53.0369,0.0002847,15.23899545,492.1353532399298,496.04840036237965,1 45212U 20012AL  26098.61560111  .00045863  00000+0  18766-2 0  9990,2 45212  53.0369 238.0658 0002847 236.1275 123.9451 15.23899545339787
STARLINK-1271,45217,53.158,9.22e-05,15.30149335,474.7344571421154,475.9982431598837,1 45217U 20012AR  26098.56370352  .00005304  00000+0  19136-3 0  9994,2 45217  53.1580 245.1957 0000922  60.2700 299.8393 15.30149335339736
STARLINK-1191,45222,53.1574,0.0003115,15.334639,463.3551530950581,467.6187308108956,1 45222U 20012AW  26098.62262228  .00057431  00000+0  17488-2 0  9994,2 45222  53.1574 219.5067 0003115 346.7503  13.3417 15.33463900340101
STARLINK-1212,45223,53.0444,0.0004784,15.58465581,388.85840575418115,395.3361659188686,1 45223U 20012AX  26098.58339120  .00099214  00000+0  12678-2 0  9997,2 45223  53.0444 205.5545 0004784 298.8411 282.3608 15.58465581  5923
STARLINK-1215,45225,53.1575,7.6e-05,15.30244866,474.5602663271329,475.60195547998956,1 45225U 20012AZ  26098.63513113  .00009002  00000+0  31525-3 0  9990,2 45225  53.1575 219.2103 0000760 100.5747 259.5339 15.30244866340069
STARLINK-1221,45227,53.0642,0.0003805,15.43075687,434.44498603990723,439.63133433681014,1 45227U 20012BB  26098.45726954  .00013154  00000+0  30184-3 0  9994,2 45227  53.0642 128.4338 0003805  88.9132 271.2309 15.43075687341309
STARLINK-1222,45228,53.0545,0.0001103,15.5144638,411.7532690466087,413.2512840710169,1 45228U 20012BC  26098.59435333  .00021449  00000+0  36415-3 0  9997,2 45228  53.0545 199.2282 0001103 164.7623 195.3419 15.51446380340266
STARLINK-1226,45229,53.1605,0.0002007,15.3818751,450.09836587724203,452.8397697528626,1 45229U 20012BD  26098.59719804  .00054288  00000+0  14225-2 0  9997,2 45229  53.1605 218.9654 0002007  36.7421 323.3721 15.38187510340008
STARLINK-1227,45230,53.1567,0.000174,15.38161416,450.3579428567464,452.7346726478436,1 45230U 20012BE  26098.61094866  .00065334  00000+0  17088-2 0  9990,2 45230  53.1567 219.0623 0001740  12.6565 347.4482 15.38161416340121
STARLINK-1246,45235,53.1575,0.000114,15.30220924,474.37131982498795,475.93386985260986,1 45235U 20012BK  26098.47519425  .00007217  00000+0  25540-3 0  9991,2 45235  53.1575 260.8956 0001140  93.3865 266.7266 15.30220924339539
STARLINK-1270,45237,53.0463,0.0003378,15.52593842,406.8633176409094,411.44881283578434,1 45237U 20012BM  26098.57465240  .00103560  00000+0  16417-2 0  9999,2 45237  53.0463 204.2507 0003378 325.7438  34.3352 15.52593842340301
STARLINK-1279,45360,53.0403,0.0004073,15.64068469,373.16823151010976,378.6700856568914,1 45360U 20019A   26098.58339120  .00140973  00000+0  14422-2 0  9994,2 45360  53.0403 313.0033 0004073 234.2409 326.1823 15.64068469  5836
STARLINK-1301,45361,53.0417,0.0001664,15.69037565,360.53018834756494,362.7731900233248,1 45361U 20019B   26098.32052290  .00064822  00000+0  55071-3 0  9991,2 45361  53.0417 318.2342 0001664 294.7898  65.2944 15.69037565335253
STARLINK-1262,45366,53.1578,0.0001268,15.2939679,476.7450499578499,478.48366850255115,1 45366U 20019G   26098.21026961  .00008112  00000+0  29276-3 0  9998,2 45366  53.1578  28.1562 0001268 103.1466 256.9676 15.29396790334278
STARLINK-1273,45367,53.0499,0.000413,15.49148016,416.4098448130808,422.0244593426978,1 45367U 20019H   26098.45681118  .00092667  00000+0  16634-2 0  9997,2 45367  53.0499  12.7352 0004130 130.3575 229.7793 15.49148016334502
STARLINK-1277,45369,53.0491,0.0005996,15.54625159,399.1763496965759,407.3085799507926,1 45369U 20019K   26098.45487818  .00107902  00000+0  15872-2 0  9992,2 45369  53.0491   9.4652 0005996 132.1049 228.0472 15.54625159334554
STARLINK-1281,45370,53.1623,0.0001135,15.30248871,474.29131440748915,475.84699220428956,1 45370U 20019L   26098.52024445  .00010427  00000+0  36314-3 0  9995,2 45370  53.1623  26.7274 0001135  95.8662 264.2469 15.30248871334322
STARLINK-1300,45374,53.1613,0.0001146,15.30258342,474.25550207346623,475.8262504427048,1 45374U 20019Q   26098.21580794  .00021525  00000+0  73546-3 0  9998,2 45374  53.1613  28.1495 0001146  95.5767 264.5364 15.30258342334276
STARLINK-1302,45375,53.0509,0.0002803,15.59738729,386.5159521778214,390.3092798925709,1 45375U 20019R   26098.05196509  .00067979  00000+0  83325-3 0  9997,2 45375  53.0509   9.5173 0002803 111.6767 248.4544 15.59738729334518
STARLINK-1304,45376,53.0479,0.000353,15.53798421,403.25304592283555,408.0423979365178,1 45376U 20019S   26098.16181344  .00110498  00000+0  16751-2 0  9994,2 45376  53.0479   7.9052 0003530 130.8067 229.3249 15.53798421334549
STARLINK-1305,45377,53.0422,0.0005422,15.59330819,385.9231561905344,393.26208218958436,1 45377U 20019T   26098.00002315  .00101342  00000+0  12527-2 0  9993,2 45377  53.0422 350.3413 0005422 189.5068 166.2351 15.59330819  5949
STARLINK-1319,45379,53.0443,0.0002462,15.69198524,359.5315739915022,362.8500189984961,1 45379U 20019V   26098.64562136  .00056716  00000+0  47971-3 0  9993,2 45379  53.0443 342.2314 0002462 156.4495 203.6634 15.69198524334954
STARLINK-1266,45383,53.05,0.0004732,15.50596055,411.7701383982112,418.19914872167647,1 45383U 20019Z   26098.42574144  .00096295  00000+0  16412-2 0  9997,2 45383  53.0500 350.7426 0004732 134.9132 225.2261 15.50596055334803
STARLINK-1267,45384,53.049,3.33e-05,15.55559269,400.3016609857177,400.75312003412546,1 45384U 20019AA  26098.00002315  .00088829  00000+0  12677-2 0  9991,2 45384  53.0490 345.8508 0000333 232.0125 258.5184 15.55559269  5936
STARLINK-1272,45386,53.0441,0.0004386,15.62327416,377.9714976342675,383.90055649360784,1 45386U 20019AC  26098.34973679  .00127181  00000+0  13957-2 0  9997,2 45386  53.0441 325.5066 0004386 221.5959 138.4721 15.62327416335156
STARLINK-1274,45387,53.0266,0.0003573,15.52273818,407.6634667065873,412.5143329345983,1 45387U 20019AD  26097.94044859  .00087491  00000+0  14070-2 0  9998,2 45387  53.0266 322.6051 0003573 280.3226  79.7380 15.52273818335154
STARLINK-1280,45388,53.0427,0.0001578,15.69742138,358.57156494689207,360.6980057223436,1 45388U 20019AE  26098.36366924  .00115315  00000+0  94212-3 0  9990,2 45388  53.0427 336.3082 0001578 169.2879 190.8171 15.69742138334990
STARLINK-1283,45389,53.0433,5.17e-05,15.64893438,373.1961856078469,373.89430955224634,1 45389U 20019AF  26098.35817614  .00052647  00000+0  53055-3 0  9995,2 45389  53.0433 325.1795 0000517 115.2715 244.8353 15.64893438335164
STARLINK-1284,45390,53.0477,0.000499,15.57383763,391.8522532620691,398.61207568821646,1 45390U 20019AG  26097.93324726  .00094694  00000+0  12611-2 0  9997,2 45390  53.0477 349.7260 0004990 145.6212 214.5123 15.57383763334773
STARLINK-1297,45395,53.0461,0.0005604,15.60625148,382.0596147244032,389.6406915256257,1 45395U 20019AM  26098.59899137  .00097813  00000+0  11516-2 0  9997,2 45395  53.0461 345.6286 0005604 149.5266 210.6073 15.60625148334073
STARLINK-1307,45397,53.0558,0.0002085,15.52864738,406.95169773720227,409.78166977332785,1 45397U 20019AP  26097.93408601  .00024504  00000+0  39427-3 0  9997,2 45397  53.0558 350.1813 0002085  98.1776 261.9469 15.52864738334590
STARLINK-1255,45399,53.04,0.0001547,15.57836204,392.873007898208,394.96828253363674,1 45399U 20019AR  26098.00002315  .00121233  00000+0  15810-2 0  9996,2 45399  53.0400 321.0853 0001547 208.6622 130.1981 15.57836204  5895
STARLINK-1260,45404,53.1595,0.0001787,15.32569488,466.9258908600432,469.37275359160685,1 45404U 20019AW  26098.40245860  .00060390  00000+0  18900-2 0  9990,2 45404  53.1595 351.0834 0001787 179.6216 180.4787 15.32569488334529
STARLINK-1263,45405,53.1606,0.0001249,15.30225679,474.2824235290509,475.9943717233782,1 45405U 20019AX  26098.40434942  .00007763  00000+0  27375-3 0  9994,2 45405  53.1606 351.2505 0001249  89.4737 270.6407 15.30225679334529
STARLINK-1265,45406,53.1601,0.0001972,15.32628211,466.6243899162664,469.3244962694216,1 45406U 20019AY  26098.40539087  .00064111  00000+0  20011-2 0  9990,2 45406  53.1601 351.1715 0001972 170.7220 189.3819 15.32628211334525
